{"type":"Feature","properties":{"lineId":"KO1","from":"Katakolo","to":"Olympia","osmRelationId":19022466,"attribution":"OpenStreetMap contributors, ODbL"},"geometry":{"type":"LineString","coordinates":[[21.316643,37.648394],[21.31664,37.648992],[21.316645,37.649394],[21.316647,37.649718],[21.316654,37.649806],[21.316719,37.650687],[21.316723,37.65144],[21.316713,37.65219],[21.316688,37.652684],[21.316618,37.653264],[21.316503,37.654048],[21.316357,37.655038],[21.31631,37.655411],[21.316306,37.655596],[21.316308,37.655782],[21.316325,37.655909],[21.316347,37.656081],[21.316378,37.656223],[21.316429,37.656385],[21.316479,37.656505],[21.316564,37.656694],[21.316656,37.656849],[21.316792,37.657039],[21.316936,37.657211],[21.317066,37.657335],[21.317741,37.657956],[21.317972,37.658167],[21.318528,37.658674],[21.319939,37.659976],[21.321619,37.661515],[21.322396,37.662238],[21.323176,37.662947],[21.323516,37.66324],[21.323723,37.663396],[21.323855,37.663492],[21.323991,37.663584],[21.324215,37.66372],[21.324447,37.663847],[21.324607,37.663928],[21.324769,37.664002],[21.324946,37.664078],[21.325124,37.664147],[21.325268,37.664201],[21.325423,37.664252],[21.325565,37.664295],[21.325809,37.664359],[21.326044,37.664414],[21.326705,37.664552],[21.327361,37.664682],[21.32868,37.66495],[21.329065,37.665032],[21.332889,37.665809],[21.333159,37.665864],[21.340926,37.667421],[21.343768,37.667977],[21.346257,37.668481],[21.351563,37.669536],[21.352142,37.669666],[21.352759,37.669827],[21.353434,37.670042],[21.354964,37.670555],[21.359499,37.672066],[21.359687,37.672128],[21.359847,37.672179],[21.366545,37.674414],[21.367752,37.674821],[21.376447,37.677684],[21.377064,37.677822],[21.377867,37.677981],[21.378781,37.678083],[21.379656,37.678145],[21.381161,37.678117],[21.381869,37.678063],[21.383652,37.677924],[21.385021,37.677823],[21.385734,37.677769],[21.392202,37.67732],[21.393687,37.677179],[21.393947,37.677139],[21.397792,37.676216],[21.400174,37.675631],[21.400853,37.675361],[21.403371,37.674212],[21.404082,37.673958],[21.404425,37.673873],[21.404901,37.673756],[21.41031,37.672428],[21.414637,37.671342],[21.41914,37.670239],[21.419789,37.670076],[21.419894,37.670049],[21.421641,37.669637],[21.422718,37.669554],[21.423545,37.669581],[21.423751,37.66961],[21.42406,37.669662],[21.424733,37.66984],[21.425604,37.670136],[21.426037,37.670295],[21.426911,37.670616],[21.427007,37.670659],[21.427103,37.670724],[21.427247,37.67083],[21.427364,37.670954],[21.427488,37.67114],[21.427593,37.671292],[21.429019,37.673356],[21.429354,37.67384],[21.429435,37.673927],[21.429471,37.673966],[21.429524,37.674023],[21.429607,37.674112],[21.429726,37.674219],[21.429826,37.674297],[21.42996,37.674388],[21.430115,37.674463],[21.430302,37.674536],[21.430549,37.67461],[21.431019,37.674766],[21.431467,37.674911],[21.431704,37.674985],[21.431932,37.675047],[21.432716,37.675286],[21.432851,37.675328],[21.432928,37.675357],[21.433177,37.675462],[21.433256,37.675492],[21.433353,37.675524],[21.433448,37.675556],[21.433534,37.675587],[21.433615,37.675618],[21.433803,37.675698],[21.433917,37.675744],[21.434037,37.675786],[21.435293,37.67619],[21.435394,37.676223],[21.435754,37.676339],[21.43819,37.677126],[21.438766,37.677312],[21.439039,37.677411],[21.439067,37.677421],[21.439287,37.677496],[21.439455,37.677572],[21.439667,37.677689],[21.439919,37.677842],[21.440097,37.677957],[21.440227,37.678045],[21.440316,37.67811],[21.440378,37.678155],[21.441204,37.678766],[21.442697,37.679829],[21.443469,37.680368],[21.443942,37.680703],[21.44438,37.681014],[21.44467,37.68119],[21.444901,37.6813],[21.445162,37.681404],[21.445417,37.681478],[21.445638,37.681543],[21.445989,37.681607],[21.446228,37.681626],[21.446501,37.681639],[21.446861,37.681627],[21.4471,37.681597],[21.447373,37.681551],[21.4476,37.6815],[21.447833,37.681433],[21.448065,37.681352],[21.44827,37.681265],[21.44848,37.681162],[21.448754,37.681016],[21.449954,37.68036],[21.450148,37.680253],[21.458884,37.675412],[21.465328,37.671844],[21.470693,37.66889],[21.472407,37.667921],[21.472736,37.667727],[21.473029,37.66754],[21.473286,37.667364],[21.473708,37.667068],[21.473745,37.667042],[21.473806,37.666999],[21.475932,37.665504],[21.475973,37.665476],[21.485892,37.658551],[21.485959,37.658508],[21.485989,37.658483],[21.486203,37.658318],[21.486415,37.65818],[21.487114,37.657675],[21.487264,37.657607],[21.487416,37.657503],[21.487835,37.657232],[21.488188,37.657038],[21.48856,37.656867],[21.488982,37.656691],[21.489383,37.656545],[21.489746,37.656432],[21.489822,37.65641],[21.490116,37.656333],[21.490527,37.656236],[21.49097,37.656145],[21.492272,37.655944],[21.493865,37.655628],[21.49538,37.655341],[21.497548,37.654864],[21.497614,37.654849],[21.498635,37.65463],[21.499234,37.654513],[21.499837,37.654395],[21.501591,37.654057],[21.5033,37.653721],[21.503336,37.653714],[21.504616,37.653469],[21.504977,37.653396],[21.505645,37.653264],[21.505704,37.653253],[21.506181,37.653179],[21.506507,37.653145],[21.506813,37.65313],[21.507175,37.65312],[21.507532,37.653133],[21.508017,37.653162],[21.509079,37.653221],[21.510195,37.653287],[21.510594,37.653305],[21.510901,37.65332],[21.512022,37.653394],[21.512555,37.653417],[21.512979,37.653441],[21.513333,37.653451],[21.513749,37.653451],[21.514094,37.653431],[21.514427,37.653397],[21.514789,37.653354],[21.515098,37.653296],[21.515503,37.653211],[21.516498,37.652969],[21.517571,37.652712],[21.518589,37.652477],[21.518894,37.652406],[21.520307,37.652067],[21.521943,37.651677],[21.523424,37.651332],[21.523842,37.651244],[21.52411,37.651194],[21.524389,37.651154],[21.52466,37.651127],[21.524888,37.651115],[21.525336,37.651109],[21.526031,37.651132],[21.526661,37.651168],[21.527793,37.65124],[21.52833,37.651257],[21.529638,37.651336],[21.530526,37.651378],[21.530882,37.651403],[21.531234,37.651434],[21.531532,37.651466],[21.53187,37.651525],[21.53216,37.651593],[21.532908,37.65178],[21.534397,37.652158],[21.53548,37.65244],[21.536668,37.652739],[21.537602,37.652971],[21.539169,37.653377],[21.539773,37.653528],[21.546034,37.655119],[21.546713,37.65529],[21.548234,37.655662],[21.550147,37.656146],[21.551445,37.656471],[21.553459,37.656997],[21.554065,37.657151],[21.554547,37.657297],[21.555011,37.65744],[21.555252,37.65752],[21.555821,37.657747],[21.556111,37.657874],[21.556511,37.65805],[21.556868,37.658234],[21.557024,37.658313],[21.557178,37.658396],[21.55733,37.658481],[21.55748,37.658569],[21.55787,37.658809],[21.558302,37.659095],[21.558684,37.659373],[21.559031,37.659645],[21.559327,37.659901],[21.559645,37.660195],[21.56013,37.660657],[21.560204,37.660732],[21.560539,37.661074],[21.561106,37.661648],[21.561215,37.661751],[21.561879,37.662401],[21.561976,37.662497],[21.565211,37.665709],[21.565673,37.666191],[21.566148,37.666656],[21.566823,37.667341],[21.56792,37.668421],[21.56895,37.669454],[21.56994,37.670437],[21.570246,37.670724],[21.570568,37.670996],[21.570817,37.671202],[21.571091,37.671395],[21.571346,37.671573],[21.571598,37.671739],[21.571866,37.6719],[21.57218,37.672091],[21.57252,37.672274],[21.572842,37.672435],[21.573178,37.672581],[21.573454,37.672707],[21.573693,37.672804],[21.57402,37.672934],[21.574271,37.67302],[21.57454,37.673104],[21.574889,37.673206],[21.575248,37.673299],[21.575576,37.673378],[21.575938,37.67346],[21.576367,37.673543],[21.576713,37.673598],[21.577077,37.673642],[21.577418,37.673675],[21.577804,37.673711],[21.578108,37.673732],[21.578464,37.673738],[21.578896,37.673738],[21.579315,37.673724],[21.579822,37.673692],[21.580355,37.673645],[21.580811,37.673583],[21.581707,37.673442],[21.582506,37.673311],[21.583023,37.67323],[21.584768,37.672944],[21.586159,37.672729],[21.587358,37.672538],[21.587544,37.672508],[21.588931,37.672276],[21.589488,37.672189],[21.590144,37.672083],[21.593059,37.671608],[21.597956,37.670811],[21.598421,37.670729],[21.598858,37.670642],[21.599223,37.670559],[21.599609,37.67046],[21.600033,37.670332],[21.600443,37.670194],[21.600843,37.670048],[21.60116,37.669917],[21.60148,37.669776],[21.601816,37.669615],[21.603952,37.668561],[21.604344,37.668369],[21.605843,37.667629],[21.606429,37.66734],[21.606712,37.667173],[21.606915,37.667053],[21.607042,37.666953],[21.607176,37.666862],[21.607312,37.666738],[21.607459,37.666606],[21.607515,37.666526],[21.607596,37.666439],[21.607722,37.666278],[21.6078,37.666135],[21.607894,37.665957],[21.607965,37.665791],[21.608035,37.665582],[21.608226,37.664703],[21.608264,37.664567],[21.608312,37.664439],[21.608368,37.664322],[21.608438,37.664212],[21.608505,37.664127],[21.608557,37.664074],[21.608618,37.66401],[21.608771,37.663877],[21.608894,37.6638],[21.609031,37.663719],[21.609167,37.663661],[21.609333,37.6636],[21.609484,37.663562],[21.609679,37.663534],[21.6099,37.663522],[21.610136,37.663531],[21.610434,37.663552],[21.611517,37.663642],[21.612046,37.6637],[21.612338,37.663724],[21.612566,37.663739],[21.612777,37.663735],[21.612992,37.663709],[21.613226,37.663649],[21.613395,37.663588],[21.613556,37.663514],[21.613687,37.663441],[21.61384,37.663333],[21.613965,37.663213],[21.614122,37.66303],[21.61425,37.662837],[21.614566,37.662362],[21.614822,37.661976],[21.615216,37.661395],[21.61538,37.661154],[21.615436,37.661072],[21.615773,37.660587],[21.615808,37.660531],[21.616202,37.659928],[21.616302,37.659792],[21.616412,37.659671],[21.616516,37.659582],[21.616653,37.659476],[21.616793,37.659393],[21.616943,37.659321],[21.617136,37.659253],[21.617286,37.659217],[21.617442,37.659187],[21.617632,37.65917],[21.617809,37.659165],[21.617994,37.659175],[21.618211,37.659221],[21.618386,37.659258],[21.61893,37.65939],[21.619051,37.659424],[21.619247,37.659466],[21.619472,37.659511],[21.619663,37.65954],[21.619882,37.659551],[21.620054,37.659551],[21.620244,37.659543],[21.620411,37.659521],[21.620603,37.659493],[21.620788,37.659446],[21.620945,37.65939],[21.621121,37.659319],[21.621301,37.65923],[21.621451,37.659134],[21.62158,37.65904],[21.621717,37.658918],[21.621865,37.658763],[21.622095,37.658498],[21.622267,37.658291],[21.622545,37.658017],[21.622903,37.657617],[21.623427,37.657074],[21.623903,37.656561],[21.624686,37.655668],[21.625306,37.655008],[21.626081,37.65415],[21.626144,37.654081],[21.626313,37.653874],[21.626421,37.65372],[21.626514,37.653564],[21.626586,37.653428],[21.626686,37.653244],[21.626789,37.653009],[21.62686,37.65279],[21.626912,37.65255],[21.626938,37.652248],[21.626934,37.652019],[21.626926,37.651815],[21.626904,37.651594],[21.62688,37.651424],[21.626861,37.651307],[21.626733,37.650456],[21.62655,37.649416],[21.626491,37.649095],[21.626414,37.648819],[21.626344,37.648623],[21.626148,37.648112],[21.62603,37.647809],[21.625974,37.647602],[21.625947,37.647424],[21.625944,37.647237],[21.62595,37.64717],[21.625954,37.647125],[21.625974,37.647007],[21.626,37.646908],[21.626033,37.646808],[21.626076,37.646707],[21.62612,37.646605],[21.626172,37.646515],[21.626667,37.64566]]}}