{"type":"FeatureCollection","name":"Patras University loop bus 612","bbox":[21.7836343,38.2859217,21.7945585,38.2920376],"metadata":{"generated_at":"2026-07-28T09:23:54Z","source":"OpenStreetMap contributors","source_url":"https://www.openstreetmap.org/relation/17671303","source_api_url":"https://api.openstreetmap.org/api/0.6/relation/17671303/full","license":"ODbL 1.0","attribution_url":"https://www.openstreetmap.org/copyright","relation_last_modified":"2024-10-19T11:48:42Z","latest_source_element_timestamp":"2025-05-01T16:37:09Z","curve_simplification":"none","coordinate_reference_system":"EPSG:4326"},"features":[{"type":"Feature","id":"relation/17671303","properties":{"feature_type":"route","name":"Bus 612: \u03a0\u03c1\u03c5\u03c4\u03b1\u03bd\u03b5\u03af\u03b1 \u2192 \u0395\u03c3\u03c4\u03af\u03b1 \u2192 \u0392\u03b9\u03b2\u03bb\u03b9\u03bf\u03b8\u03ae\u03ba\u03b7","ref":"612","from":"\u039a\u03c4\u03ae\u03c1\u03b9\u03bf \u0391' \u03a0\u03c1\u03c5\u03c4\u03b1\u03bd\u03b5\u03af\u03b1","operator":"\u0391\u03c3\u03c4\u03b9\u03ba\u03ad\u03c2 \u03a3\u03c5\u03b3\u03ba\u03bf\u03b9\u03bd\u03c9\u03bd\u03af\u03b5\u03c2 \u03a0\u03b1\u03c4\u03c1\u03ce\u03bd \u0391.\u0395.","network":"\u0391\u03c3\u03c4\u03b9\u03ba\u03ad\u03c2 \u03a3\u03c5\u03b3\u03ba\u03bf\u03b9\u03bd\u03c9\u03bd\u03af\u03b5\u03c2 \u03a0\u03b1\u03c4\u03c1\u03ce\u03bd \u0391.\u0395.","roundtrip":true,"fee":"no","interval":"00:30:00","osm_relation_id":17671303,"osm_relation_version":2,"osm_relation_timestamp":"2024-10-19T11:48:42Z","osm_way_traversal_ids":[1289093286,159932585,295869150,1289093281,27439553,814930551,1221572437,1221572436,814930551,27439553,295869149,1289093287,1325672620,32085336,1230823299,1289093289,1289093288,32085346,295869152,1289093287,295869148,295869150,159932585,410671094,32281810,32281827,240358889,1289093283,1289093282],"way_traversal_count":29,"unique_way_count":24,"vertex_count":180,"length_m":3909,"platform_occurrence_count":8,"unique_platform_count":6,"closure_gap_m":0.0,"connection_gaps":[]},"geometry":{"type":"LineString","coordinates":[[21.7859247,38.2861467],[21.7861299,38.2862557],[21.7865001,38.2864608],[21.7866834,38.286561],[21.78677,38.286608],[21.7868495,38.2866512],[21.7871889,38.2868223],[21.7873102,38.2868835],[21.7874284,38.2869455],[21.7875218,38.2869848],[21.7875664,38.2870023],[21.7876428,38.2870282],[21.787684,38.2870411],[21.7877161,38.2870501],[21.787758,38.2870579],[21.7877979,38.287064],[21.787854,38.2870702],[21.787962,38.2870772],[21.7883485,38.2870622],[21.7884587,38.2870599],[21.789029,38.2870558],[21.7890503,38.2870553],[21.7899542,38.2870336],[21.7902291,38.2870359],[21.7903199,38.2870407],[21.7904099,38.2870514],[21.7904972,38.2870642],[21.7905864,38.287082],[21.7906966,38.2871073],[21.7907856,38.2871335],[21.7908742,38.2871638],[21.7910081,38.2872191],[21.7911109,38.287267],[21.7912254,38.2873299],[21.7918453,38.2876779],[21.7918927,38.2877045],[21.7920027,38.2877678],[21.7931958,38.2884376],[21.7940797,38.2889394],[21.7945585,38.2892086],[21.7945084,38.2892633],[21.7945094,38.2893634],[21.7945149,38.2900112],[21.7945104,38.290941],[21.7944913,38.2909818],[21.7944708,38.2910011],[21.7944339,38.2910075],[21.7944016,38.2909991],[21.7943821,38.2909831],[21.7943649,38.2909628],[21.7943574,38.2909412],[21.7943503,38.2900303],[21.7943591,38.2900201],[21.794372,38.2900132],[21.7945149,38.2900112],[21.7945094,38.2893634],[21.7945084,38.2892633],[21.7945585,38.2892086],[21.7940797,38.2889394],[21.7931958,38.2884376],[21.7920027,38.2877678],[21.7919455,38.2878191],[21.7919139,38.287871],[21.7919028,38.2878959],[21.7918846,38.2879418],[21.7918745,38.2879781],[21.7918657,38.2880127],[21.7918487,38.2881122],[21.7918322,38.2882242],[21.7918381,38.2886267],[21.7918457,38.2891724],[21.7918478,38.2899862],[21.7918221,38.2901636],[21.7917916,38.290299],[21.7917524,38.2904524],[21.7916491,38.2908463],[21.7915297,38.291101],[21.7913945,38.2913583],[21.7911439,38.2917487],[21.7910902,38.2918123],[21.7909497,38.2919809],[21.7909213,38.2920098],[21.7908759,38.2920351],[21.7908309,38.2920376],[21.7907793,38.292025],[21.7907397,38.2920005],[21.7907081,38.2919544],[21.7907081,38.2917583],[21.7907074,38.291715],[21.7907074,38.2916602],[21.7907269,38.2915111],[21.7907359,38.2904165],[21.7907354,38.290344],[21.7909604,38.2903546],[21.791225,38.2903599],[21.7914658,38.2903443],[21.7916335,38.2903238],[21.7917916,38.290299],[21.7918221,38.2901636],[21.7918478,38.2899862],[21.7918457,38.2891724],[21.7918381,38.2886267],[21.7918322,38.2882242],[21.7918162,38.2881002],[21.7918089,38.2880301],[21.7918085,38.2879425],[21.7918154,38.2878786],[21.7918374,38.2878083],[21.791852,38.2877741],[21.7918601,38.2877605],[21.7918927,38.2877045],[21.7918453,38.2876779],[21.7912254,38.2873299],[21.7911109,38.287267],[21.7910081,38.2872191],[21.7908742,38.2871638],[21.7907856,38.2871335],[21.7906966,38.2871073],[21.7905864,38.287082],[21.7904972,38.2870642],[21.7904099,38.2870514],[21.7903199,38.2870407],[21.7902291,38.2870359],[21.7899542,38.2870336],[21.7890503,38.2870553],[21.789029,38.2870558],[21.7884587,38.2870599],[21.7883485,38.2870622],[21.787962,38.2870772],[21.787854,38.2870702],[21.7877979,38.287064],[21.787758,38.2870579],[21.7877161,38.2870501],[21.787684,38.2870411],[21.7876428,38.2870282],[21.7875664,38.2870023],[21.7875218,38.2869848],[21.7874284,38.2869455],[21.7872996,38.2870997],[21.7869702,38.2874942],[21.7868638,38.2876144],[21.7865982,38.2879164],[21.7864485,38.2880864],[21.7859386,38.2886651],[21.7859268,38.2886794],[21.785858,38.2887576],[21.7854082,38.2892583],[21.78535,38.289323],[21.7852335,38.2892669],[21.7851866,38.2892435],[21.7849176,38.2891093],[21.7848425,38.289067],[21.7846087,38.2889321],[21.784525,38.2888634],[21.7842736,38.2885528],[21.7840615,38.2882962],[21.7839772,38.2881901],[21.7836487,38.287784],[21.7836417,38.2877694],[21.7836374,38.2877553],[21.7836343,38.2877405],[21.7836352,38.2877268],[21.7836418,38.2877053],[21.7836568,38.2876779],[21.7836728,38.2876575],[21.7836927,38.2876382],[21.7838007,38.2875484],[21.78394,38.2874309],[21.7842918,38.2871342],[21.7847132,38.2867787],[21.78476,38.2867405],[21.7848874,38.2866366],[21.7849209,38.2866043],[21.785069,38.2864385],[21.7852105,38.286275],[21.7854113,38.2860431],[21.785421,38.2860211],[21.7855005,38.2859217],[21.7856251,38.2859878],[21.7859247,38.2861467]]}},{"type":"Feature","id":"node/11329706269/occurrence/1","properties":{"feature_type":"platform","stop_order":1,"occurrence_for_node":1,"name":"\u0391\u03c6\u03b5\u03c4\u03b7\u03c1\u03af\u03b1 \u03a0\u03c1\u03c5\u03c4\u03b1\u03bd\u03b5\u03af\u03b1 \u0393\u03b9\u03b1 612","ref":"0","role":"platform","highway":"bus_stop","public_transport":"platform","shelter":"no","operator":"\u0391\u03c3\u03c4\u03b9\u03ba\u03ad\u03c2 \u03a3\u03c5\u03b3\u03ba\u03bf\u03b9\u03bd\u03c9\u03bd\u03af\u03b5\u03c2 \u03a0\u03b1\u03c4\u03c1\u03ce\u03bd","osm_node_id":11329706269,"osm_version":1,"osm_timestamp":"2023-11-06T18:02:04Z","distance_from_rectorate_km":0.012,"offset_from_route_m":5.7,"projected_route_coordinate":[21.78603723195861,38.286206475747996]},"geometry":{"type":"Point","coordinates":[21.7860735,38.2861642]}},{"type":"Feature","id":"node/11329706270/occurrence/1","properties":{"feature_type":"platform","stop_order":2,"occurrence_for_node":1,"name":"\u03a6\u03bf\u03b9\u03c4\u03b7\u03c4\u03b9\u03ba\u03ae \u0395\u03c3\u03c4\u03af\u03b1","ref":"1","role":"platform","highway":"bus_stop","public_transport":"platform","shelter":"no","operator":"\u0391\u03c3\u03c4\u03b9\u03ba\u03ad\u03c2 \u03a3\u03c5\u03b3\u03ba\u03bf\u03b9\u03bd\u03c9\u03bd\u03af\u03b5\u03c2 \u03a0\u03b1\u03c4\u03c1\u03ce\u03bd","osm_node_id":11329706270,"osm_version":1,"osm_timestamp":"2023-11-06T18:02:04Z","distance_from_rectorate_km":0.373,"offset_from_route_m":3.9,"projected_route_coordinate":[21.789849154004855,38.287036121847656]},"geometry":{"type":"Point","coordinates":[21.7898478,38.2870012]}},{"type":"Feature","id":"node/11329706271/occurrence/1","properties":{"feature_type":"platform","stop_order":3,"occurrence_for_node":1,"name":"\u03a4\u03bc\u03ae\u03bc\u03b1 \u039c\u03b7\u03c7\u03b1\u03bd\u03b9\u03ba\u03ce\u03bd \u0397/\u03a5 & \u03a0\u03bb\u03b7\u03c1\u03bf\u03c6\u03bf\u03c1\u03b9\u03ba\u03ae\u03c2","ref":"2","role":"platform","highway":"bus_stop","public_transport":"platform","shelter":"no","operator":"\u0391\u03c3\u03c4\u03b9\u03ba\u03ad\u03c2 \u03a3\u03c5\u03b3\u03ba\u03bf\u03b9\u03bd\u03c9\u03bd\u03af\u03b5\u03c2 \u03a0\u03b1\u03c4\u03c1\u03ce\u03bd","osm_node_id":11329706271,"osm_version":1,"osm_timestamp":"2023-11-06T18:02:04Z","distance_from_rectorate_km":0.99,"offset_from_route_m":6.1,"projected_route_coordinate":[21.794513125787116,38.29037779180852]},"geometry":{"type":"Point","coordinates":[21.7945826,38.290378]}},{"type":"Feature","id":"node/11953620002/occurrence/1","properties":{"feature_type":"platform","stop_order":4,"occurrence_for_node":1,"name":"\u0392\u03b9\u03b2\u03bb\u03b9\u03bf\u03b8\u03ae\u03ba\u03b7","ref":"2","role":"platform","highway":"bus_stop","public_transport":"platform","shelter":"no","operator":"\u0391\u03c3\u03c4\u03b9\u03ba\u03ad\u03c2 \u03a3\u03c5\u03b3\u03ba\u03bf\u03b9\u03bd\u03c9\u03bd\u03af\u03b5\u03c2 \u03a0\u03b1\u03c4\u03c1\u03ce\u03bd","osm_node_id":11953620002,"osm_version":1,"osm_timestamp":"2024-06-03T10:56:57Z","distance_from_rectorate_km":2.229,"offset_from_route_m":14.2,"projected_route_coordinate":[21.790734943559205,38.29053282445524]},"geometry":{"type":"Point","coordinates":[21.790573,38.290532]}},{"type":"Feature","id":"node/11329706270/occurrence/2","properties":{"feature_type":"platform","stop_order":5,"occurrence_for_node":2,"name":"\u03a6\u03bf\u03b9\u03c4\u03b7\u03c4\u03b9\u03ba\u03ae \u0395\u03c3\u03c4\u03af\u03b1","ref":"1","role":"platform","highway":"bus_stop","public_transport":"platform","shelter":"no","operator":"\u0391\u03c3\u03c4\u03b9\u03ba\u03ad\u03c2 \u03a3\u03c5\u03b3\u03ba\u03bf\u03b9\u03bd\u03c9\u03bd\u03af\u03b5\u03c2 \u03a0\u03b1\u03c4\u03c1\u03ce\u03bd","osm_node_id":11329706270,"osm_version":1,"osm_timestamp":"2023-11-06T18:02:04Z","distance_from_rectorate_km":2.832,"offset_from_route_m":3.9,"projected_route_coordinate":[21.789849154004855,38.287036121847656]},"geometry":{"type":"Point","coordinates":[21.7898478,38.2870012]}},{"type":"Feature","id":"node/4101478591/occurrence/1","properties":{"feature_type":"platform","stop_order":6,"occurrence_for_node":1,"name":"\u03a0\u03bf\u03bb\u03c5\u03c4\u03b5\u03c7\u03bd\u03b5\u03af\u03bf \u0391\u03c3\u03c4\u03b9\u03ba\u03cc","ref":null,"role":"platform","highway":"bus_stop","public_transport":"platform","shelter":"yes","operator":"\u0391\u03c3\u03c4\u03b9\u03ba\u03ad\u03c2 \u03a3\u03c5\u03b3\u03ba\u03bf\u03b9\u03bd\u03c9\u03bd\u03af\u03b5\u03c2 \u03a0\u03b1\u03c4\u03c1\u03ce\u03bd","osm_node_id":4101478591,"osm_version":3,"osm_timestamp":"2024-01-04T15:12:32Z","distance_from_rectorate_km":3.189,"offset_from_route_m":1.6,"projected_route_coordinate":[21.786515798761645,38.288009975220575]},"geometry":{"type":"Point","coordinates":[21.7865307,38.2880181]}},{"type":"Feature","id":"node/11329706273/occurrence/1","properties":{"feature_type":"platform","stop_order":7,"occurrence_for_node":1,"name":"\u03a0.A.M","ref":"4","role":"platform","highway":"bus_stop","public_transport":"platform","shelter":null,"operator":"\u0391\u03c3\u03c4\u03b9\u03ba\u03ad\u03c2 \u03a3\u03c5\u03b3\u03ba\u03bf\u03b9\u03bd\u03c9\u03bd\u03af\u03b5\u03c2 \u03a0\u03b1\u03c4\u03c1\u03ce\u03bd","osm_node_id":11329706273,"osm_version":2,"osm_timestamp":"2024-06-03T10:56:57Z","distance_from_rectorate_km":3.506,"offset_from_route_m":5.9,"projected_route_coordinate":[21.78421334710643,38.288479905645964]},"geometry":{"type":"Point","coordinates":[21.7841565,38.288509]}},{"type":"Feature","id":"node/11329706269/occurrence/2","properties":{"feature_type":"platform","stop_order":8,"occurrence_for_node":2,"name":"\u0391\u03c6\u03b5\u03c4\u03b7\u03c1\u03af\u03b1 \u03a0\u03c1\u03c5\u03c4\u03b1\u03bd\u03b5\u03af\u03b1 \u0393\u03b9\u03b1 612","ref":"0","role":"platform","highway":"bus_stop","public_transport":"platform","shelter":"no","operator":"\u0391\u03c3\u03c4\u03b9\u03ba\u03ad\u03c2 \u03a3\u03c5\u03b3\u03ba\u03bf\u03b9\u03bd\u03c9\u03bd\u03af\u03b5\u03c2 \u03a0\u03b1\u03c4\u03c1\u03ce\u03bd","osm_node_id":11329706269,"osm_version":1,"osm_timestamp":"2023-11-06T18:02:04Z","distance_from_rectorate_km":3.909,"offset_from_route_m":13.2,"projected_route_coordinate":[21.7859247,38.2861467]},"geometry":{"type":"Point","coordinates":[21.7860735,38.2861642]}}]}